{"fetched_at":"2026-07-05T12:48:25.991Z","source":"https://celestrak.org/NORAD/elements/gp.php?NAME=NUSAT&FORMAT=JSON","constellation":"satellogic","records":[{"OBJECT_NAME":"NUSAT-26 (M SOMERVILLE)","OBJECT_ID":"2022-033AD","EPOCH":"2026-07-05T06:37:30.337248","CLASSIFICATION_TYPE":"U","MEAN_MOTION":15.42982209,"ECCENTRICITY":0.00062711,"INCLINATION":97.2335,"RA_OF_ASC_NODE":265.2232,"ARG_OF_PERICENTER":167.2477,"MEAN_ANOMALY":192.8931,"EPHEMERIS_TYPE":0,"NORAD_CAT_ID":52184,"ELEMENT_SET_NO":999,"REV_AT_EPOCH":10749,"BSTAR":0.00095882451,"MEAN_MOTION_DOT":0.00042346,"MEAN_MOTION_DDOT":0},{"OBJECT_NAME":"NUSAT-33 (ALBANIA-2)","OBJECT_ID":"2023-001AQ","EPOCH":"2026-07-05T06:50:32.367840","CLASSIFICATION_TYPE":"U","MEAN_MOTION":15.28140503,"ECCENTRICITY":0.00057311,"INCLINATION":97.3056,"RA_OF_ASC_NODE":246.8455,"ARG_OF_PERICENTER":356.9119,"MEAN_ANOMALY":3.2084,"EPHEMERIS_TYPE":0,"NORAD_CAT_ID":55047,"ELEMENT_SET_NO":999,"REV_AT_EPOCH":19507,"BSTAR":0.00048127852,"MEAN_MOTION_DOT":0.00013145,"MEAN_MOTION_DDOT":0},{"OBJECT_NAME":"NUSAT-35 (WILLIAMINA)","OBJECT_ID":"2023-001AR","EPOCH":"2026-07-05T06:47:13.214112","CLASSIFICATION_TYPE":"U","MEAN_MOTION":15.35635028,"ECCENTRICITY":0.0011628,"INCLINATION":97.1837,"RA_OF_ASC_NODE":238.574,"ARG_OF_PERICENTER":44.5611,"MEAN_ANOMALY":315.6566,"EPHEMERIS_TYPE":0,"NORAD_CAT_ID":55048,"ELEMENT_SET_NO":999,"REV_AT_EPOCH":19518,"BSTAR":0.000510876,"MEAN_MOTION_DOT":0.0001768,"MEAN_MOTION_DDOT":0},{"OBJECT_NAME":"NUSAT-39 (TIKVAH ALPER)","OBJECT_ID":"2023-054Z","EPOCH":"2026-07-05T06:50:07.036224","CLASSIFICATION_TYPE":"U","MEAN_MOTION":15.47615046,"ECCENTRICITY":0.00034962,"INCLINATION":97.3099,"RA_OF_ASC_NODE":96.2121,"ARG_OF_PERICENTER":10.9225,"MEAN_ANOMALY":349.21,"EPHEMERIS_TYPE":0,"NORAD_CAT_ID":56201,"ELEMENT_SET_NO":999,"REV_AT_EPOCH":18125,"BSTAR":0.00068577231,"MEAN_MOTION_DOT":0.00035388,"MEAN_MOTION_DDOT":0},{"OBJECT_NAME":"NUSAT-38 (MARIA AGNESI)","OBJECT_ID":"2023-054AA","EPOCH":"2026-07-05T07:11:34.592352","CLASSIFICATION_TYPE":"U","MEAN_MOTION":15.50722202,"ECCENTRICITY":0.00106276,"INCLINATION":97.3039,"RA_OF_ASC_NODE":96.9237,"ARG_OF_PERICENTER":6.6214,"MEAN_ANOMALY":353.5176,"EPHEMERIS_TYPE":0,"NORAD_CAT_ID":56202,"ELEMENT_SET_NO":999,"REV_AT_EPOCH":18131,"BSTAR":0.00068710368,"MEAN_MOTION_DOT":0.00039631,"MEAN_MOTION_DDOT":0},{"OBJECT_NAME":"NUSAT-37 (JOAN CLARKE)","OBJECT_ID":"2023-054AB","EPOCH":"2026-07-05T06:46:09.658272","CLASSIFICATION_TYPE":"U","MEAN_MOTION":15.58889144,"ECCENTRICITY":0.00063554,"INCLINATION":97.261,"RA_OF_ASC_NODE":93.7192,"ARG_OF_PERICENTER":173.1708,"MEAN_ANOMALY":186.9636,"EPHEMERIS_TYPE":0,"NORAD_CAT_ID":56203,"ELEMENT_SET_NO":999,"REV_AT_EPOCH":18146,"BSTAR":0.00075613936,"MEAN_MOTION_DOT":0.00058832,"MEAN_MOTION_DDOT":0},{"OBJECT_NAME":"NUSAT-40 (C SHOEMAKER)","OBJECT_ID":"2023-084M","EPOCH":"2026-07-05T08:27:13.343328","CLASSIFICATION_TYPE":"U","MEAN_MOTION":15.80259653,"ECCENTRICITY":0.00045759,"INCLINATION":97.4872,"RA_OF_ASC_NODE":334.3529,"ARG_OF_PERICENTER":205.6002,"MEAN_ANOMALY":154.5039,"EPHEMERIS_TYPE":0,"NORAD_CAT_ID":56943,"ELEMENT_SET_NO":999,"REV_AT_EPOCH":17167,"BSTAR":0.00076106266,"MEAN_MOTION_DOT":0.00144452,"MEAN_MOTION_DDOT":0},{"OBJECT_NAME":"NUSAT-41 (C PAYNE-G)","OBJECT_ID":"2023-084N","EPOCH":"2026-07-05T07:22:34.460256","CLASSIFICATION_TYPE":"U","MEAN_MOTION":15.30003767,"ECCENTRICITY":0.00058151,"INCLINATION":97.5543,"RA_OF_ASC_NODE":323.3117,"ARG_OF_PERICENTER":251.214,"MEAN_ANOMALY":108.8469,"EPHEMERIS_TYPE":0,"NORAD_CAT_ID":56944,"ELEMENT_SET_NO":999,"REV_AT_EPOCH":17055,"BSTAR":0.00050401055,"MEAN_MOTION_DOT":0.00014579,"MEAN_MOTION_DDOT":0},{"OBJECT_NAME":"NUSAT-42 (M WONENBURGER)","OBJECT_ID":"2023-084AL","EPOCH":"2026-07-05T06:59:56.313600","CLASSIFICATION_TYPE":"U","MEAN_MOTION":15.4618564,"ECCENTRICITY":0.00061881,"INCLINATION":97.5742,"RA_OF_ASC_NODE":331.1665,"ARG_OF_PERICENTER":177.7307,"MEAN_ANOMALY":182.3971,"EPHEMERIS_TYPE":0,"NORAD_CAT_ID":56966,"ELEMENT_SET_NO":999,"REV_AT_EPOCH":17087,"BSTAR":0.00058272691,"MEAN_MOTION_DOT":0.00028598,"MEAN_MOTION_DDOT":0},{"OBJECT_NAME":"NUSAT-44 (MARIA MITCHELL)","OBJECT_ID":"2024-043AA","EPOCH":"2026-07-05T07:51:00.135360","CLASSIFICATION_TYPE":"U","MEAN_MOTION":15.3004216,"ECCENTRICITY":0.0006711,"INCLINATION":97.5477,"RA_OF_ASC_NODE":326.8678,"ARG_OF_PERICENTER":164.3347,"MEAN_ANOMALY":195.8102,"EPHEMERIS_TYPE":0,"NORAD_CAT_ID":59122,"ELEMENT_SET_NO":999,"REV_AT_EPOCH":13004,"BSTAR":0.00049829796,"MEAN_MOTION_DOT":0.00014432,"MEAN_MOTION_DDOT":0},{"OBJECT_NAME":"NUSAT-50 (NANCY ROMAN)","OBJECT_ID":"2024-149AB","EPOCH":"2026-07-05T03:41:29.957280","CLASSIFICATION_TYPE":"U","MEAN_MOTION":15.30191785,"ECCENTRICITY":0.00046615,"INCLINATION":97.3781,"RA_OF_ASC_NODE":267.2877,"ARG_OF_PERICENTER":126.0757,"MEAN_ANOMALY":234.0916,"EPHEMERIS_TYPE":0,"NORAD_CAT_ID":60493,"ELEMENT_SET_NO":999,"REV_AT_EPOCH":10487,"BSTAR":0.00054708553,"MEAN_MOTION_DOT":0.00015927,"MEAN_MOTION_DDOT":0},{"OBJECT_NAME":"NUSAT-48 (HENRIETTA LEAVITT)","OBJECT_ID":"2024-149AG","EPOCH":"2026-07-04T16:26:05.608032","CLASSIFICATION_TYPE":"U","MEAN_MOTION":15.30158963,"ECCENTRICITY":0.000405,"INCLINATION":97.3889,"RA_OF_ASC_NODE":267.098,"ARG_OF_PERICENTER":199.8805,"MEAN_ANOMALY":160.2279,"EPHEMERIS_TYPE":0,"NORAD_CAT_ID":60498,"ELEMENT_SET_NO":999,"REV_AT_EPOCH":10481,"BSTAR":0.0015151621,"MEAN_MOTION_DOT":0.0004436,"MEAN_MOTION_DDOT":0},{"OBJECT_NAME":"NUSAT-49 (KLARA DAN VON NEUMANN)","OBJECT_ID":"2024-149AJ","EPOCH":"2026-07-05T04:26:20.159520","CLASSIFICATION_TYPE":"U","MEAN_MOTION":15.30263379,"ECCENTRICITY":0.00014897,"INCLINATION":97.3773,"RA_OF_ASC_NODE":267.3507,"ARG_OF_PERICENTER":193.9913,"MEAN_ANOMALY":166.1286,"EPHEMERIS_TYPE":0,"NORAD_CAT_ID":60500,"ELEMENT_SET_NO":999,"REV_AT_EPOCH":10488,"BSTAR":0.00053562646,"MEAN_MOTION_DOT":0.00015621,"MEAN_MOTION_DDOT":0},{"OBJECT_NAME":"NUSAT-45 (UZMASAT-1)","OBJECT_ID":"2025-009AH","EPOCH":"2026-07-05T04:10:31.031328","CLASSIFICATION_TYPE":"U","MEAN_MOTION":15.30260208,"ECCENTRICITY":0.00008651,"INCLINATION":97.3586,"RA_OF_ASC_NODE":267.2132,"ARG_OF_PERICENTER":220.1961,"MEAN_ANOMALY":139.9216,"EPHEMERIS_TYPE":0,"NORAD_CAT_ID":62640,"ELEMENT_SET_NO":999,"REV_AT_EPOCH":8167,"BSTAR":0.00054197965,"MEAN_MOTION_DOT":0.00015806,"MEAN_MOTION_DDOT":0},{"OBJECT_NAME":"NUSAT-52","OBJECT_ID":"2025-276AC","EPOCH":"2026-07-02T14:52:55.457184","CLASSIFICATION_TYPE":"U","MEAN_MOTION":15.19856589,"ECCENTRICITY":0.00020563,"INCLINATION":97.4202,"RA_OF_ASC_NODE":256.9128,"ARG_OF_PERICENTER":350.371,"MEAN_ANOMALY":9.7486,"EPHEMERIS_TYPE":0,"NORAD_CAT_ID":66692,"ELEMENT_SET_NO":999,"REV_AT_EPOCH":3276,"BSTAR":0.00029673612,"MEAN_MOTION_DOT":0.00006298,"MEAN_MOTION_DDOT":0},{"OBJECT_NAME":"NUSAT-51 (YVONNE BRILL)","OBJECT_ID":"2025-276CC","EPOCH":"2026-07-04T15:58:41.180160","CLASSIFICATION_TYPE":"U","MEAN_MOTION":15.20478409,"ECCENTRICITY":0.00016548,"INCLINATION":97.4203,"RA_OF_ASC_NODE":259.0589,"ARG_OF_PERICENTER":308.0328,"MEAN_ANOMALY":52.0757,"EPHEMERIS_TYPE":0,"NORAD_CAT_ID":66740,"ELEMENT_SET_NO":999,"REV_AT_EPOCH":3308,"BSTAR":0.0005494343,"MEAN_MOTION_DOT":0.00011942,"MEAN_MOTION_DDOT":0}]}
