NUSAT-26 (M SOMERVILLE) 
1 52184U 22033AD  26186.27604557  .00042346  00000+0  95882-3 0  9992
2 52184  97.2335 265.2232 0006271 167.2477 192.8931 15.42982209107499
NUSAT-33 (ALBANIA-2)    
1 55047U 23001AQ  26186.28509685  .00013145  00000+0  48128-3 0  9992
2 55047  97.3056 246.8455 0005731 356.9119   3.2084 15.28140503195075
NUSAT-35 (WILLIAMINA)   
1 55048U 23001AR  26186.28279183  .00017680  00000+0  51088-3 0  9997
2 55048  97.1837 238.5740 0011628  44.5611 315.6566 15.35635028195181
NUSAT-39 (TIKVAH ALPER) 
1 56201U 23054Z   26186.28480366  .00035388  00000+0  68577-3 0  9990
2 56201  97.3099  96.2121 0003496  10.9225 349.2100 15.47615046181250
NUSAT-38 (MARIA AGNESI) 
1 56202U 23054AA  26186.29970593  .00039631  00000+0  68710-3 0  9992
2 56202  97.3039  96.9237 0010627   6.6214 353.5176 15.50722202181319
NUSAT-37 (JOAN CLARKE)  
1 56203U 23054AB  26186.28205623  .00058832  00000+0  75614-3 0  9992
2 56203  97.2610  93.7192 0006355 173.1708 186.9636 15.58889144181462
NUSAT-40 (C SHOEMAKER)  
1 56943U 23084M   26186.35223777  .00144452  00000+0  76106-3 0  9995
2 56943  97.4872 334.3529 0004575 205.6002 154.5039 15.80259653171674
NUSAT-41 (C PAYNE-G)    
1 56944U 23084N   26186.30734329  .00014579  00000+0  50401-3 0  9997
2 56944  97.5543 323.3117 0005815 251.2140 108.8469 15.30003767170553
NUSAT-42 (M WONENBURGER)
1 56966U 23084AL  26186.29162400  .00028598  00000+0  58273-3 0  9995
2 56966  97.5742 331.1665 0006188 177.7307 182.3971 15.46185640170872
NUSAT-44 (MARIA MITCHE*)
1 59122U 24043AA  26186.32708490  .00014432  00000+0  49830-3 0  9998
2 59122  97.5477 326.8678 0006711 164.3347 195.8102 15.30042160130049
NUSAT-50 (NANCY ROMAN)  
1 60493U 24149AB  26186.15381895  .00015927  00000+0  54709-3 0  9996
2 60493  97.3781 267.2877 0004661 126.0757 234.0916 15.30191785104878
NUSAT-48 (HENRIETTA LE*)
1 60498U 24149AG  26185.68478713  .00044360  00000+0  15152-2 0  9995
2 60498  97.3889 267.0980 0004050 199.8805 160.2279 15.30158963104816
NUSAT-49 (KLARA DAN VO*)
1 60500U 24149AJ  26186.18495555  .00015621  00000+0  53563-3 0  9995
2 60500  97.3773 267.3507 0001489 193.9913 166.1286 15.30263379104886
NUSAT-45 (UZMASAT-1)    
1 62640U 25009AH  26186.17397027  .00015806  00000+0  54198-3 0  9992
2 62640  97.3586 267.2132 0000865 220.1961 139.9216 15.30260208 81671
NUSAT-52                
1 66692U 25276AC  26183.62008631  .00006298  00000+0  29674-3 0  9992
2 66692  97.4202 256.9128 0002056 350.3710   9.7486 15.19856589 32769
NUSAT-51 (YVONNE BRILL) 
1 66740U 25276CC  26185.66575440  .00011942  00000+0  54943-3 0  9998
2 66740  97.4203 259.0589 0001654 308.0328  52.0757 15.20478409 33088
